{"type": "FeatureCollection", "features": [ {"type": "Feature", "properties": {"norad_id": 35961, "name": "COSMOS 2251 DEB", "group": "cosmos-2251-debris", "lat": -36.43061724963067, "lon": -164.38424472180608, "alt_km": 1020.5486447468511, "timestamp": "2025-12-10T14:53:37.484592+00:00", "meta": {"OBJECT_NAME": "COSMOS 2251 DEB", "OBJECT_ID": "1993-036AVB", "EPOCH": "2025-12-08T23:47:16.046880", "MEAN_MOTION": 14.05362993, "ECCENTRICITY": 0.0192085, "INCLINATION": 73.9243, "RA_OF_ASC_NODE": 210.7691, "ARG_OF_PERICENTER": 145.0168, "MEAN_ANOMALY": 216.3768, "EPHEMERIS_TYPE": 0, "CLASSIFICATION_TYPE": "U", "NORAD_CAT_ID": 35961, "ELEMENT_SET_NO": 999, "REV_AT_EPOCH": 62629, "BSTAR": 0.0010036, "MEAN_MOTION_DOT": 1.896e-05, "MEAN_MOTION_DDOT": 0}, "tle": {"line1": "1 35961U 93036AVB 25342.99115795  .00001896  00000+0  10036-2 0  9992", "line2": "2 35961  73.9243 210.7691 0192085 145.0168 216.3768 14.05362993626290"}}, "geometry": {"type": "Point", "coordinates": [-164.38424472180608, -36.43061724963067]}}, {"type": "Feature", "properties": {"norad_id": 35979, "name": "COSMOS 2251 DEB", "group": "cosmos-2251-debris", "lat": 40.977379680675305, "lon": -103.04734075599697, "alt_km": 606.2769334495952, "timestamp": "2025-12-10T14:53:37.484601+00:00", "meta": {"OBJECT_NAME": "COSMOS 2251 DEB", "OBJECT_ID": "1993-036AVV", "EPOCH": "2025-12-09T11:50:03.223968", "MEAN_MOTION": 14.74576302, "ECCENTRICITY": 0.00588204, "INCLINATION": 74.0104, "RA_OF_ASC_NODE": 244.7352, "ARG_OF_PERICENTER": 17.6471, "MEAN_ANOMALY": 162.3797, "EPHEMERIS_TYPE": 0, "CLASSIFICATION_TYPE": "U", "NORAD_CAT_ID": 35979, "ELEMENT_SET_NO": 999, "REV_AT_EPOCH": 88585, "BSTAR": 0.0014101379, "MEAN_MOTION_DOT": 9.639e-05, "MEAN_MOTION_DDOT": 0}, "tle": {"line1": "1 35979U 93036AVV 25343.49309287  .00009639  00000+0  14101-2 0  9998", "line2": "2 35979  74.0104 244.7352 0058820  17.6471 162.3797 14.74576302885855"}}, "geometry": {"type": "Point", "coordinates": [-103.04734075599697, 40.977379680675305]}}, {"type": "Feature", "properties": {"norad_id": 35980, "name": "COSMOS 2251 DEB", "group": "cosmos-2251-debris", "lat": 36.17267550059708, "lon": 138.94011567102734, "alt_km": 720.5972264267575, "timestamp": "2025-12-10T14:53:37.484610+00:00", "meta": {"OBJECT_NAME": "COSMOS 2251 DEB", "OBJECT_ID": "1993-036AVW", "EPOCH": "2025-12-02T19:08:08.015136", "MEAN_MOTION": 14.59062146, "ECCENTRICITY": 0.00537712, "INCLINATION": 73.91, "RA_OF_ASC_NODE": 141.7735, "ARG_OF_PERICENTER": 277.5645, "MEAN_ANOMALY": 81.9413, "EPHEMERIS_TYPE": 0, "CLASSIFICATION_TYPE": "U", "NORAD_CAT_ID": 35980, "ELEMENT_SET_NO": 999, "REV_AT_EPOCH": 61341, "BSTAR": 0.002036555, "MEAN_MOTION_DOT": 9.752e-05, "MEAN_MOTION_DDOT": 0}, "tle": {"line1": "1 35980U 93036AVW 25336.79731499  .00009752  00000+0  20366-2 0  9995", "line2": "2 35980  73.9100 141.7735 0053771 277.5645  81.9413 14.59062146613413"}}, "geometry": {"type": "Point", "coordinates": [138.94011567102734, 36.17267550059708]}}, {"type": "Feature", "properties": {"norad_id": 35982, "name": "COSMOS 2251 DEB", "group": "cosmos-2251-debris", "lat": -60.60419515512196, "lon": -39.502040576142775, "alt_km": 715.5360690262696, "timestamp": "2025-12-10T14:53:37.484618+00:00", "meta": {"OBJECT_NAME": "COSMOS 2251 DEB", "OBJECT_ID": "1993-036AVY", "EPOCH": "2025-12-10T06:58:59.167776", "MEAN_MOTION": 14.62727818, "ECCENTRICITY": 0.00640705, "INCLINATION": 74.0584, "RA_OF_ASC_NODE": 351.6165, "ARG_OF_PERICENTER": 58.6721, "MEAN_ANOMALY": 302.0696, "EPHEMERIS_TYPE": 0, "CLASSIFICATION_TYPE": "U", "NORAD_CAT_ID": 35982, "ELEMENT_SET_NO": 999, "REV_AT_EPOCH": 86130, "BSTAR": 0.00080633388, "MEAN_MOTION_DOT": 4.203e-05, "MEAN_MOTION_DDOT": 0}, "tle": {"line1": "1 35982U 93036AVY 25344.29096259  .00004203  00000+0  80633-3 0  9999", "line2": "2 35982  74.0584 351.6165 0064070  58.6721 302.0696 14.62727818861300"}}, "geometry": {"type": "Point", "coordinates": [-39.502040576142775, -60.60419515512196]}}, {"type": "Feature", "properties": {"norad_id": 35987, "name": "COSMOS 2251 DEB", "group": "cosmos-2251-debris", "lat": 70.14537231525381, "lon": 23.20594521118253, "alt_km": 710.1106237215454, "timestamp": "2025-12-10T14:53:37.484627+00:00", "meta": {"OBJECT_NAME": "COSMOS 2251 DEB", "OBJECT_ID": "1993-036AWD", "EPOCH": "2025-12-09T16:54:21.694464", "MEAN_MOTION": 14.43096791, "ECCENTRICITY": 0.00459367, "INCLINATION": 73.9999, "RA_OF_ASC_NODE": 332.2918, "ARG_OF_PERICENTER": 98.9143, "MEAN_ANOMALY": 261.7217, "EPHEMERIS_TYPE": 0, "CLASSIFICATION_TYPE": "U", "NORAD_CAT_ID": 35987, "ELEMENT_SET_NO": 999, "REV_AT_EPOCH": 61021, "BSTAR": 0.0015703221, "MEAN_MOTION_DOT": 5.314e-05, "MEAN_MOTION_DDOT": 0}, "tle": {"line1": "1 35987U 93036AWD 25343.70441776  .00005314  00000+0  15703-2 0  9996", "line2": "2 35987  73.9999 332.2918 0045936  98.9143 261.7217 14.43096791610219"}}, "geometry": {"type": "Point", "coordinates": [23.20594521118253, 70.14537231525381]}}, {"type": "Feature", "properties": {"norad_id": 35989, "name": "COSMOS 2251 DEB", "group": "cosmos-2251-debris", "lat": 10.26363304798921, "lon": 104.75563910757086, "alt_km": 783.8400440241985, "timestamp": "2025-12-10T14:53:37.484636+00:00", "meta": {"OBJECT_NAME": "COSMOS 2251 DEB", "OBJECT_ID": "1993-036AWF", "EPOCH": "2025-12-06T04:51:17.856864", "MEAN_MOTION": 14.37086268, "ECCENTRICITY": 0.00218316, "INCLINATION": 74.0371, "RA_OF_ASC_NODE": 295.8482, "ARG_OF_PERICENTER": 19.4894, "MEAN_ANOMALY": 340.7089, "EPHEMERIS_TYPE": 0, "CLASSIFICATION_TYPE": "U", "NORAD_CAT_ID": 35989, "ELEMENT_SET_NO": 999, "REV_AT_EPOCH": 87085, "BSTAR": 0.00043011654, "MEAN_MOTION_DOT": 1.255e-05, "MEAN_MOTION_DDOT": 0}, "tle": {"line1": "1 35989U 93036AWF 25340.20229001  .00001255  00000+0  43012-3 0  9990", "line2": "2 35989  74.0371 295.8482 0021831  19.4894 340.7089 14.37086268870850"}}, "geometry": {"type": "Point", "coordinates": [104.75563910757086, 10.26363304798921]}}, {"type": "Feature", "properties": {"norad_id": 35993, "name": "COSMOS 2251 DEB", "group": "cosmos-2251-debris", "lat": -12.486490238766507, "lon": 160.52130380780335, "alt_km": 661.7950470601745, "timestamp": "2025-12-10T14:53:37.484645+00:00", "meta": {"OBJECT_NAME": "COSMOS 2251 DEB", "OBJECT_ID": "1993-036AWK", "EPOCH": "2025-12-09T16:42:55.834848", "MEAN_MOTION": 14.65265094, "ECCENTRICITY": 0.00290722, "INCLINATION": 74.0153, "RA_OF_ASC_NODE": 338.6616, "ARG_OF_PERICENTER": 169.2926, "MEAN_ANOMALY": 190.8869, "EPHEMERIS_TYPE": 0, "CLASSIFICATION_TYPE": "U", "NORAD_CAT_ID": 35993, "ELEMENT_SET_NO": 999, "REV_AT_EPOCH": 60398, "BSTAR": 0.0011875212, "MEAN_MOTION_DOT": 6.416e-05, "MEAN_MOTION_DDOT": 0}, "tle": {"line1": "1 35993U 93036AWK 25343.69647957  .00006416  00000+0  11875-2 0  9990", "line2": "2 35993  74.0153 338.6616 0029072 169.2926 190.8869 14.65265094603988"}}, "geometry": {"type": "Point", "coordinates": [160.52130380780335, -12.486490238766507]}}, {"type": "Feature", "properties": {"norad_id": 35996, "name": "COSMOS 2251 DEB", "group": "cosmos-2251-debris", "lat": -51.69072100847544, "lon": 86.52265195081222, "alt_km": 562.2763026403163, "timestamp": "2025-12-10T14:53:37.484654+00:00", "meta": {"OBJECT_NAME": "COSMOS 2251 DEB", "OBJECT_ID": "1993-036AWN", "EPOCH": "2025-12-06T15:40:07.668192", "MEAN_MOTION": 15.08900528, "ECCENTRICITY": 0.00890114, "INCLINATION": 74.0155, "RA_OF_ASC_NODE": 115.9821, "ARG_OF_PERICENTER": 208.3907, "MEAN_ANOMALY": 151.2421, "EPHEMERIS_TYPE": 0, "CLASSIFICATION_TYPE": "U", "NORAD_CAT_ID": 35996, "ELEMENT_SET_NO": 999, "REV_AT_EPOCH": 72234, "BSTAR": 0.001269926, "MEAN_MOTION_DOT": 0.00021998, "MEAN_MOTION_DDOT": 0}, "tle": {"line1": "1 35996U 93036AWN 25340.65286653  .00021998  00000+0  12699-2 0  9995", "line2": "2 35996  74.0155 115.9821 0089011 208.3907 151.2421 15.08900528722343"}}, "geometry": {"type": "Point", "coordinates": [86.52265195081222, -51.69072100847544]}}, {"type": "Feature", "properties": {"norad_id": 35997, "name": "COSMOS 2251 DEB", "group": "cosmos-2251-debris", "lat": 60.04683240456785, "lon": -18.489955509868757, "alt_km": 725.0244709177468, "timestamp": "2025-12-10T14:53:37.484662+00:00", "meta": {"OBJECT_NAME": "COSMOS 2251 DEB", "OBJECT_ID": "1993-036AWP", "EPOCH": "2025-12-09T20:09:48.839904", "MEAN_MOTION": 14.51292272, "ECCENTRICITY": 0.00157365, "INCLINATION": 74.043, "RA_OF_ASC_NODE": 192.7469, "ARG_OF_PERICENTER": 268.5156, "MEAN_ANOMALY": 91.4203, "EPHEMERIS_TYPE": 0, "CLASSIFICATION_TYPE": "U", "NORAD_CAT_ID": 35997, "ELEMENT_SET_NO": 999, "REV_AT_EPOCH": 70842, "BSTAR": 0.00093479882, "MEAN_MOTION_DOT": 3.7e-05, "MEAN_MOTION_DDOT": 0}, "tle": {"line1": "1 35997U 93036AWP 25343.84014861  .00003700  00000+0  93480-3 0  9999", "line2": "2 35997  74.0430 192.7469 0015736 268.5156  91.4203 14.51292272708421"}}, "geometry": {"type": "Point", "coordinates": [-18.489955509868757, 60.04683240456785]}}, {"type": "Feature", "properties": {"norad_id": 36005, "name": "COSMOS 2251 DEB", "group": "cosmos-2251-debris", "lat": 3.060824614975122, "lon": -82.9065867684825, "alt_km": 713.6148834260939, "timestamp": "2025-12-10T14:53:37.484671+00:00", "meta": {"OBJECT_NAME": "COSMOS 2251 DEB", "OBJECT_ID": "1993-036AWX", "EPOCH": "2025-12-09T18:10:04.760256", "MEAN_MOTION": 14.47350954, "ECCENTRICITY": 0.00620063, "INCLINATION": 74.0266, "RA_OF_ASC_NODE": 99.5861, "ARG_OF_PERICENTER": 237.5434, "MEAN_ANOMALY": 121.9721, "EPHEMERIS_TYPE": 0, "CLASSIFICATION_TYPE": "U", "NORAD_CAT_ID": 36005, "ELEMENT_SET_NO": 999, "REV_AT_EPOCH": 87541, "BSTAR": 0.0003861818, "MEAN_MOTION_DOT": 1.421e-05, "MEAN_MOTION_DDOT": 0}, "tle": {"line1": "1 36005U 93036AWX 25343.75699954  .00001421  00000+0  38618-3 0  9992", "line2": "2 36005  74.0266  99.5861 0062006 237.5434 121.9721 14.47350954875411"}}, "geometry": {"type": "Point", "coordinates": [-82.9065867684825, 3.060824614975122]}}]}